{"type": "FeatureCollection", "features": [{"type": "Feature", "geometry": {"type": "Polygon", "coordinates": [[[-3.7138, 40.406800000000004], [-3.6938000000000004, 40.406800000000004], [-3.6938000000000004, 40.4268], [-3.7138, 40.4268], [-3.7138, 40.406800000000004]]]}, "properties": {"GRID_ID": "grid_1", "MUNICIPIO": "Madrid - Centro", "CMUN4": 79, "ACCESIBILIDAD_TRANSPORTE": 4.97, "ACCESIBILIDAD_OCIO_CULTURA": 4.23, "ACCESIBILIDAD_PARQUES": 2.83, "ACCESIBILIDAD_GASOLINERAS_COCHE": 3.53, "ACCESIBILIDAD_HOSPITAL": 5.0, "ACCESIBILIDAD_HOSPITAL_COCHE": 5.0, "ACCESIBILIDAD_HIPERMERCADO": 5.0, "ACCESIBILIDAD_HIPERMERCADO_COCHE": 4.67, "ACCESIBILIDAD_COM_MINORISTA": 4.71, "ACCESIBILIDAD_COM_MINORISTA_COCHE": 4.62, "ACCESIBILIDAD_MERCADO": 4.46, "ACCESIBILIDAD_MERCADO_COCHE": 5.0, "ACCESIBILIDAD_CENTROCOM": 4.23, "ACCESIBILIDAD_CENTROCOM_COCHE": 4.76, "ACCESIBILIDAD_SALUD_BASICA": 4.98, "ACCESIBILIDAD_SALUD_BASICA_COCHE": 5.0, "ACCESIBILIDAD_SSOCIALES_MAYORES": 4.46, "ACCESIBILIDAD_SSOCIALES_MAYORES_COCHE": 5.0, "ACCESIBILIDAD_FARMACIAS": 5.0, "ACCESIBILIDAD_FARMACIAS_COCHE": 4.61, "ACCESIBILIDAD_EDUCACION_INFANTIL": 5.0, "ACCESIBILIDAD_EDUCACION_INFANTIL_COCHE": 5.0, "ACCESIBILIDAD_EDUCACION_PRIMARIA": 4.61, "ACCESIBILIDAD_EDUCACION_PRIMARIA_COCHE": 4.72, "ACCESIBILIDAD_EDUCACION_SECUNDARIA": 5.0, "ACCESIBILIDAD_EDUCACION_SECUNDARIA_COCHE": 4.87, "ACCESIBILIDAD_UNIVERSIDAD": 4.31, "ACCESIBILIDAD_UNIVERSIDAD_COCHE": 4.68}}, {"type": "Feature", "geometry": {"type": "Polygon", "coordinates": [[[-3.6862999999999997, 40.462], [-3.6663, 40.462], [-3.6663, 40.482], [-3.6862999999999997, 40.482], [-3.6862999999999997, 40.462]]]}, "properties": {"GRID_ID": "grid_2", "MUNICIPIO": "Madrid - Chamartin", "CMUN4": 79, "ACCESIBILIDAD_TRANSPORTE": 4.82, "ACCESIBILIDAD_OCIO_CULTURA": 4.52, "ACCESIBILIDAD_PARQUES": 3.67, "ACCESIBILIDAD_GASOLINERAS_COCHE": 4.26, "ACCESIBILIDAD_HOSPITAL": 4.44, "ACCESIBILIDAD_HOSPITAL_COCHE": 5.0, "ACCESIBILIDAD_HIPERMERCADO": 4.25, "ACCESIBILIDAD_HIPERMERCADO_COCHE": 5.0, "ACCESIBILIDAD_COM_MINORISTA": 4.8, "ACCESIBILIDAD_COM_MINORISTA_COCHE": 5.0, "ACCESIBILIDAD_MERCADO": 4.83, "ACCESIBILIDAD_MERCADO_COCHE": 5.0, "ACCESIBILIDAD_CENTROCOM": 4.65, "ACCESIBILIDAD_CENTROCOM_COCHE": 4.64, "ACCESIBILIDAD_SALUD_BASICA": 4.07, "ACCESIBILIDAD_SALUD_BASICA_COCHE": 4.83, "ACCESIBILIDAD_SSOCIALES_MAYORES": 3.9, "ACCESIBILIDAD_SSOCIALES_MAYORES_COCHE": 4.79, "ACCESIBILIDAD_FARMACIAS": 3.92, "ACCESIBILIDAD_FARMACIAS_COCHE": 4.82, "ACCESIBILIDAD_EDUCACION_INFANTIL": 4.56, "ACCESIBILIDAD_EDUCACION_INFANTIL_COCHE": 4.89, "ACCESIBILIDAD_EDUCACION_PRIMARIA": 4.24, "ACCESIBILIDAD_EDUCACION_PRIMARIA_COCHE": 4.77, "ACCESIBILIDAD_EDUCACION_SECUNDARIA": 4.12, "ACCESIBILIDAD_EDUCACION_SECUNDARIA_COCHE": 5.0, "ACCESIBILIDAD_UNIVERSIDAD": 4.58, "ACCESIBILIDAD_UNIVERSIDAD_COCHE": 5.0}}, {"type": "Feature", "geometry": {"type": "Polygon", "coordinates": [[[-3.699, 40.38], [-3.6790000000000003, 40.38], [-3.6790000000000003, 40.4], [-3.699, 40.4], [-3.699, 40.38]]]}, "properties": {"GRID_ID": "grid_3", "MUNICIPIO": "Madrid - Villaverde", "CMUN4": 79, "ACCESIBILIDAD_TRANSPORTE": 2.81, "ACCESIBILIDAD_OCIO_CULTURA": 3.47, "ACCESIBILIDAD_PARQUES": 3.5, "ACCESIBILIDAD_GASOLINERAS_COCHE": 4.2, "ACCESIBILIDAD_HOSPITAL": 3.79, "ACCESIBILIDAD_HOSPITAL_COCHE": 5.0, "ACCESIBILIDAD_HIPERMERCADO": 3.27, "ACCESIBILIDAD_HIPERMERCADO_COCHE": 5.0, "ACCESIBILIDAD_COM_MINORISTA": 3.61, "ACCESIBILIDAD_COM_MINORISTA_COCHE": 5.0, "ACCESIBILIDAD_MERCADO": 2.87, "ACCESIBILIDAD_MERCADO_COCHE": 4.63, "ACCESIBILIDAD_CENTROCOM": 2.98, "ACCESIBILIDAD_CENTROCOM_COCHE": 4.81, "ACCESIBILIDAD_SALUD_BASICA": 2.85, "ACCESIBILIDAD_SALUD_BASICA_COCHE": 5.0, "ACCESIBILIDAD_SSOCIALES_MAYORES": 3.65, "ACCESIBILIDAD_SSOCIALES_MAYORES_COCHE": 4.85, "ACCESIBILIDAD_FARMACIAS": 3.39, "ACCESIBILIDAD_FARMACIAS_COCHE": 4.92, "ACCESIBILIDAD_EDUCACION_INFANTIL": 3.7, "ACCESIBILIDAD_EDUCACION_INFANTIL_COCHE": 4.97, "ACCESIBILIDAD_EDUCACION_PRIMARIA": 2.92, "ACCESIBILIDAD_EDUCACION_PRIMARIA_COCHE": 4.8, "ACCESIBILIDAD_EDUCACION_SECUNDARIA": 3.27, "ACCESIBILIDAD_EDUCACION_SECUNDARIA_COCHE": 4.81, "ACCESIBILIDAD_UNIVERSIDAD": 3.3, "ACCESIBILIDAD_UNIVERSIDAD_COCHE": 5.0}}, {"type": "Feature", "geometry": {"type": "Polygon", "coordinates": [[[-3.3729999999999998, 40.4718], [-3.353, 40.4718], [-3.353, 40.4918], [-3.3729999999999998, 40.4918], [-3.3729999999999998, 40.4718]]]}, "properties": {"GRID_ID": "grid_4", "MUNICIPIO": "Alcala de Henares", "CMUN4": 5, "ACCESIBILIDAD_TRANSPORTE": 3.28, "ACCESIBILIDAD_OCIO_CULTURA": 3.06, "ACCESIBILIDAD_PARQUES": 4.4, "ACCESIBILIDAD_GASOLINERAS_COCHE": 4.29, "ACCESIBILIDAD_HOSPITAL": 2.91, "ACCESIBILIDAD_HOSPITAL_COCHE": 4.64, "ACCESIBILIDAD_HIPERMERCADO": 2.93, "ACCESIBILIDAD_HIPERMERCADO_COCHE": 5.0, "ACCESIBILIDAD_COM_MINORISTA": 3.75, "ACCESIBILIDAD_COM_MINORISTA_COCHE": 4.94, "ACCESIBILIDAD_MERCADO": 2.88, "ACCESIBILIDAD_MERCADO_COCHE": 4.91, "ACCESIBILIDAD_CENTROCOM": 4.0, "ACCESIBILIDAD_CENTROCOM_COCHE": 5.0, "ACCESIBILIDAD_SALUD_BASICA": 3.97, "ACCESIBILIDAD_SALUD_BASICA_COCHE": 5.0, "ACCESIBILIDAD_SSOCIALES_MAYORES": 2.81, "ACCESIBILIDAD_SSOCIALES_MAYORES_COCHE": 5.0, "ACCESIBILIDAD_FARMACIAS": 3.62, "ACCESIBILIDAD_FARMACIAS_COCHE": 5.0, "ACCESIBILIDAD_EDUCACION_INFANTIL": 3.12, "ACCESIBILIDAD_EDUCACION_INFANTIL_COCHE": 5.0, "ACCESIBILIDAD_EDUCACION_PRIMARIA": 2.93, "ACCESIBILIDAD_EDUCACION_PRIMARIA_COCHE": 4.95, "ACCESIBILIDAD_EDUCACION_SECUNDARIA": 3.34, "ACCESIBILIDAD_EDUCACION_SECUNDARIA_COCHE": 5.0, "ACCESIBILIDAD_UNIVERSIDAD": 3.85, "ACCESIBILIDAD_UNIVERSIDAD_COCHE": 4.81}}, {"type": "Feature", "geometry": {"type": "Polygon", "coordinates": [[[-3.7426999999999997, 40.2984], [-3.7227, 40.2984], [-3.7227, 40.3184], [-3.7426999999999997, 40.3184], [-3.7426999999999997, 40.2984]]]}, "properties": {"GRID_ID": "grid_5", "MUNICIPIO": "Getafe", "CMUN4": 58, "ACCESIBILIDAD_TRANSPORTE": 3.2, "ACCESIBILIDAD_OCIO_CULTURA": 2.81, "ACCESIBILIDAD_PARQUES": 4.4, "ACCESIBILIDAD_GASOLINERAS_COCHE": 4.78, "ACCESIBILIDAD_HOSPITAL": 2.96, "ACCESIBILIDAD_HOSPITAL_COCHE": 5.0, "ACCESIBILIDAD_HIPERMERCADO": 3.33, "ACCESIBILIDAD_HIPERMERCADO_COCHE": 4.72, "ACCESIBILIDAD_COM_MINORISTA": 3.52, "ACCESIBILIDAD_COM_MINORISTA_COCHE": 5.0, "ACCESIBILIDAD_MERCADO": 3.53, "ACCESIBILIDAD_MERCADO_COCHE": 5.0, "ACCESIBILIDAD_CENTROCOM": 2.6, "ACCESIBILIDAD_CENTROCOM_COCHE": 4.86, "ACCESIBILIDAD_SALUD_BASICA": 2.62, "ACCESIBILIDAD_SALUD_BASICA_COCHE": 5.0, "ACCESIBILIDAD_SSOCIALES_MAYORES": 3.65, "ACCESIBILIDAD_SSOCIALES_MAYORES_COCHE": 5.0, "ACCESIBILIDAD_FARMACIAS": 2.97, "ACCESIBILIDAD_FARMACIAS_COCHE": 4.65, "ACCESIBILIDAD_EDUCACION_INFANTIL": 3.65, "ACCESIBILIDAD_EDUCACION_INFANTIL_COCHE": 5.0, "ACCESIBILIDAD_EDUCACION_PRIMARIA": 2.7, "ACCESIBILIDAD_EDUCACION_PRIMARIA_COCHE": 4.99, "ACCESIBILIDAD_EDUCACION_SECUNDARIA": 2.68, "ACCESIBILIDAD_EDUCACION_SECUNDARIA_COCHE": 5.0, "ACCESIBILIDAD_UNIVERSIDAD": 3.52, "ACCESIBILIDAD_UNIVERSIDAD_COCHE": 4.7}}, {"type": "Feature", "geometry": {"type": "Polygon", "coordinates": [[[-3.8743999999999996, 40.3123], [-3.8544, 40.3123], [-3.8544, 40.3323], [-3.8743999999999996, 40.3323], [-3.8743999999999996, 40.3123]]]}, "properties": {"GRID_ID": "grid_6", "MUNICIPIO": "Mostoles", "CMUN4": 92, "ACCESIBILIDAD_TRANSPORTE": 2.97, "ACCESIBILIDAD_OCIO_CULTURA": 3.06, "ACCESIBILIDAD_PARQUES": 3.72, "ACCESIBILIDAD_GASOLINERAS_COCHE": 4.85, "ACCESIBILIDAD_HOSPITAL": 2.91, "ACCESIBILIDAD_HOSPITAL_COCHE": 4.77, "ACCESIBILIDAD_HIPERMERCADO": 3.05, "ACCESIBILIDAD_HIPERMERCADO_COCHE": 5.0, "ACCESIBILIDAD_COM_MINORISTA": 2.64, "ACCESIBILIDAD_COM_MINORISTA_COCHE": 4.85, "ACCESIBILIDAD_MERCADO": 3.59, "ACCESIBILIDAD_MERCADO_COCHE": 5.0, "ACCESIBILIDAD_CENTROCOM": 2.93, "ACCESIBILIDAD_CENTROCOM_COCHE": 5.0, "ACCESIBILIDAD_SALUD_BASICA": 2.55, "ACCESIBILIDAD_SALUD_BASICA_COCHE": 4.78, "ACCESIBILIDAD_SSOCIALES_MAYORES": 2.81, "ACCESIBILIDAD_SSOCIALES_MAYORES_COCHE": 5.0, "ACCESIBILIDAD_FARMACIAS": 2.68, "ACCESIBILIDAD_FARMACIAS_COCHE": 4.78, "ACCESIBILIDAD_EDUCACION_INFANTIL": 2.49, "ACCESIBILIDAD_EDUCACION_INFANTIL_COCHE": 5.0, "ACCESIBILIDAD_EDUCACION_PRIMARIA": 2.67, "ACCESIBILIDAD_EDUCACION_PRIMARIA_COCHE": 5.0, "ACCESIBILIDAD_EDUCACION_SECUNDARIA": 3.43, "ACCESIBILIDAD_EDUCACION_SECUNDARIA_COCHE": 4.66, "ACCESIBILIDAD_UNIVERSIDAD": 2.69, "ACCESIBILIDAD_UNIVERSIDAD_COCHE": 5.0}}, {"type": "Feature", "geometry": {"type": "Polygon", "coordinates": [[[-3.8375, 40.336200000000005], [-3.8175000000000003, 40.336200000000005], [-3.8175000000000003, 40.3562], [-3.8375, 40.3562], [-3.8375, 40.336200000000005]]]}, "properties": {"GRID_ID": "grid_7", "MUNICIPIO": "Alcorcon", "CMUN4": 4, "ACCESIBILIDAD_TRANSPORTE": 2.66, "ACCESIBILIDAD_OCIO_CULTURA": 2.56, "ACCESIBILIDAD_PARQUES": 4.52, "ACCESIBILIDAD_GASOLINERAS_COCHE": 4.49, "ACCESIBILIDAD_HOSPITAL": 2.97, "ACCESIBILIDAD_HOSPITAL_COCHE": 5.0, "ACCESIBILIDAD_HIPERMERCADO": 3.37, "ACCESIBILIDAD_HIPERMERCADO_COCHE": 4.75, "ACCESIBILIDAD_COM_MINORISTA": 2.52, "ACCESIBILIDAD_COM_MINORISTA_COCHE": 4.94, "ACCESIBILIDAD_MERCADO": 2.91, "ACCESIBILIDAD_MERCADO_COCHE": 4.97, "ACCESIBILIDAD_CENTROCOM": 3.27, "ACCESIBILIDAD_CENTROCOM_COCHE": 5.0, "ACCESIBILIDAD_SALUD_BASICA": 3.58, "ACCESIBILIDAD_SALUD_BASICA_COCHE": 4.68, "ACCESIBILIDAD_SSOCIALES_MAYORES": 2.88, "ACCESIBILIDAD_SSOCIALES_MAYORES_COCHE": 4.87, "ACCESIBILIDAD_FARMACIAS": 3.43, "ACCESIBILIDAD_FARMACIAS_COCHE": 4.8, "ACCESIBILIDAD_EDUCACION_INFANTIL": 2.63, "ACCESIBILIDAD_EDUCACION_INFANTIL_COCHE": 4.96, "ACCESIBILIDAD_EDUCACION_PRIMARIA": 2.91, "ACCESIBILIDAD_EDUCACION_PRIMARIA_COCHE": 4.82, "ACCESIBILIDAD_EDUCACION_SECUNDARIA": 2.7, "ACCESIBILIDAD_EDUCACION_SECUNDARIA_COCHE": 5.0, "ACCESIBILIDAD_UNIVERSIDAD": 2.93, "ACCESIBILIDAD_UNIVERSIDAD_COCHE": 5.0}}, {"type": "Feature", "geometry": {"type": "Polygon", "coordinates": [[[-3.8842, 40.4823], [-3.8642000000000003, 40.4823], [-3.8642000000000003, 40.5023], [-3.8842, 40.5023], [-3.8842, 40.4823]]]}, "properties": {"GRID_ID": "grid_8", "MUNICIPIO": "Las Rozas de Madrid", "CMUN4": 115, "ACCESIBILIDAD_TRANSPORTE": 2.66, "ACCESIBILIDAD_OCIO_CULTURA": 2.06, "ACCESIBILIDAD_PARQUES": 4.8, "ACCESIBILIDAD_GASOLINERAS_COCHE": 4.92, "ACCESIBILIDAD_HOSPITAL": 3.16, "ACCESIBILIDAD_HOSPITAL_COCHE": 5.0, "ACCESIBILIDAD_HIPERMERCADO": 3.02, "ACCESIBILIDAD_HIPERMERCADO_COCHE": 4.73, "ACCESIBILIDAD_COM_MINORISTA": 2.58, "ACCESIBILIDAD_COM_MINORISTA_COCHE": 4.77, "ACCESIBILIDAD_MERCADO": 2.48, "ACCESIBILIDAD_MERCADO_COCHE": 4.65, "ACCESIBILIDAD_CENTROCOM": 2.45, "ACCESIBILIDAD_CENTROCOM_COCHE": 5.0, "ACCESIBILIDAD_SALUD_BASICA": 2.32, "ACCESIBILIDAD_SALUD_BASICA_COCHE": 5.0, "ACCESIBILIDAD_SSOCIALES_MAYORES": 2.55, "ACCESIBILIDAD_SSOCIALES_MAYORES_COCHE": 4.94, "ACCESIBILIDAD_FARMACIAS": 3.15, "ACCESIBILIDAD_FARMACIAS_COCHE": 5.0, "ACCESIBILIDAD_EDUCACION_INFANTIL": 2.67, "ACCESIBILIDAD_EDUCACION_INFANTIL_COCHE": 5.0, "ACCESIBILIDAD_EDUCACION_PRIMARIA": 2.19, "ACCESIBILIDAD_EDUCACION_PRIMARIA_COCHE": 4.84, "ACCESIBILIDAD_EDUCACION_SECUNDARIA": 3.16, "ACCESIBILIDAD_EDUCACION_SECUNDARIA_COCHE": 5.0, "ACCESIBILIDAD_UNIVERSIDAD": 2.65, "ACCESIBILIDAD_UNIVERSIDAD_COCHE": 5.0}}, {"type": "Feature", "geometry": {"type": "Polygon", "coordinates": [[[-3.51, 40.89], [-3.49, 40.89], [-3.49, 40.91], [-3.51, 40.91], [-3.51, 40.89]]]}, "properties": {"GRID_ID": "grid_9", "MUNICIPIO": "Excluido (prueba de filtro CMUN4)", "CMUN4": 920, "ACCESIBILIDAD_TRANSPORTE": 1.67, "ACCESIBILIDAD_OCIO_CULTURA": 2.3, "ACCESIBILIDAD_PARQUES": 4.4, "ACCESIBILIDAD_GASOLINERAS_COCHE": 5.0, "ACCESIBILIDAD_HOSPITAL": 1.79, "ACCESIBILIDAD_HOSPITAL_COCHE": 5.0, "ACCESIBILIDAD_HIPERMERCADO": 1.7, "ACCESIBILIDAD_HIPERMERCADO_COCHE": 4.75, "ACCESIBILIDAD_COM_MINORISTA": 2.31, "ACCESIBILIDAD_COM_MINORISTA_COCHE": 5.0, "ACCESIBILIDAD_MERCADO": 1.88, "ACCESIBILIDAD_MERCADO_COCHE": 4.7, "ACCESIBILIDAD_CENTROCOM": 2.67, "ACCESIBILIDAD_CENTROCOM_COCHE": 4.8, "ACCESIBILIDAD_SALUD_BASICA": 2.31, "ACCESIBILIDAD_SALUD_BASICA_COCHE": 5.0, "ACCESIBILIDAD_SSOCIALES_MAYORES": 2.1, "ACCESIBILIDAD_SSOCIALES_MAYORES_COCHE": 5.0, "ACCESIBILIDAD_FARMACIAS": 2.23, "ACCESIBILIDAD_FARMACIAS_COCHE": 5.0, "ACCESIBILIDAD_EDUCACION_INFANTIL": 1.85, "ACCESIBILIDAD_EDUCACION_INFANTIL_COCHE": 5.0, "ACCESIBILIDAD_EDUCACION_PRIMARIA": 1.89, "ACCESIBILIDAD_EDUCACION_PRIMARIA_COCHE": 4.92, "ACCESIBILIDAD_EDUCACION_SECUNDARIA": 2.41, "ACCESIBILIDAD_EDUCACION_SECUNDARIA_COCHE": 4.84, "ACCESIBILIDAD_UNIVERSIDAD": 1.98, "ACCESIBILIDAD_UNIVERSIDAD_COCHE": 5.0}}]}